COMMENT,ORIGINATOR,NORAD_CAT_ID,OBJECT_NAME,OBJECT_TYPE,CLASSIFICATION_TYPE,INTLDES,EPOCH,EPOCH_MICROSECONDS,MEAN_MOTION,ECCENTRICITY,INCLINATION,RA_OF_ASC_NODE,ARG_OF_PERICENTER,MEAN_ANOMALY,EPHEMERIS_TYPE,ELEMENT_SET_NO,REV_AT_EPOCH,BSTAR,MEAN_MOTION_DOT,MEAN_MOTION_DDOT,FILE,TLE_LINE0,TLE_LINE1,TLE_LINE2,OBJECT_ID,OBJECT_NUMBER,SEMIMAJOR_AXIS,PERIOD,APOGEE,PERIGEE,DECAYED,date
GENERATED VIA SPACETRACK.ORG API,18 SPCS,52182,SPACEBEE-128,PAYLOAD,U,22033AB,2023/4/22 23:03,19104,15.41863299,0.0004313,97.3511,196.332,359.5387,0.5856,0,999,5894,0.0014363,0.00061278,0,3892273,0 SPACEBEE-128,1 52182U 22033AB  23112.96107661  .00061278  00000-0  14363-2 0  9996,2 52182  97.3511 196.3320 0004313 359.5387   0.5856 15.41863299 58949,2022-033AB,52182,6818.747,93.393,443.553,437.671,1,
GENERATED VIA SPACETRACK.ORG API,18 SPCS,52182,SPACEBEE-128,PAYLOAD,U,22033AB,2023/4/23 5:17,753216,15.41902082,0.0004291,97.351,196.5935,358.4518,1.6715,0,999,5900,0.0014118,0.00060301,0,3892688,0 SPACEBEE-128,1 52182U 22033AB  23113.22066844  .00060301  00000-0  14118-2 0  9997,2 52182  97.3510 196.5935 0004291 358.4518   1.6715 15.41902082 59009,2022-033AB,52182,6818.633,93.391,443.424,437.572,1,
GENERATED VIA SPACETRACK.ORG API,18 SPCS,52182,SPACEBEE-128,PAYLOAD,U,22033AB,2023/4/23 16:11,829824,15.41963584,0.0004382,97.3506,197.0516,355.8247,4.2963,0,999,5907,0.0016605,0.00071184,0,3892831,0 SPACEBEE-128,1 52182U 22033AB  23113.67494016  .00071184  00000-0  16605-2 0  9996,2 52182  97.3506 197.0516 0004382 355.8247   4.2963 15.41963584 59071,2022-033AB,52182,6818.452,93.387,443.304,437.329,1,
GENERATED VIA SPACETRACK.ORG API,18 SPCS,52182,SPACEBEE-128,PAYLOAD,U,22033AB,2023/4/25 4:00,577760,15.42286979,0.0004287,97.3505,198.5556,349.346,10.7695,0,999,5930,0.0014897,0.00064488,0,3894092,0 SPACEBEE-128,1 52182U 22033AB  23115.16734465  .00064488  00000-0  14897-2 0  9997,2 52182  97.3505 198.5556 0004287 349.3460  10.7695 15.42286979 59306,2022-033AB,52182,6817.498,93.368,442.286,436.441,1,
GENERATED VIA SPACETRACK.ORG API,18 SPCS,52182,SPACEBEE-128,PAYLOAD,U,22033AB,2023/4/26 11:09,713888,15.42412757,0.0004417,97.3501,199.8638,342.4433,17.6661,0,999,5950,0.0012801,0.00055572,0,3894260,0 SPACEBEE-128,1 52182U 22033AB  23116.46491567  .00055572  00000-0  12801-2 0  9991,2 52182  97.3501 199.8638 0004417 342.4433  17.6661 15.42412757 59502,2022-033AB,52182,6817.128,93.36,442.004,435.982,1,
GENERATED VIA SPACETRACK.ORG API,18 SPCS,52182,SPACEBEE-128,PAYLOAD,U,22033AB,2023/4/27 4:17,960032,15.42496779,0.0004316,97.3499,200.5833,338.3731,21.7334,0,999,5959,0.001313,0.00057174,0,3894500,0 SPACEBEE-128,1 52182U 22033AB  23117.17852963  .00057174  00000-0  13130-2 0  9997,2 52182  97.3499 200.5833 0004316 338.3731  21.7334 15.42496779 59596,2022-033AB,52182,6816.88,93.355,441.687,435.803,1,
GENERATED VIA SPACETRACK.ORG API,18 SPCS,52182,SPACEBEE-128,PAYLOAD,U,22033AB,2023/4/28 5:11,386624,15.42631619,0.000427,97.3502,201.6302,333.4238,26.679,0,999,5975,0.0012581,0.00055011,0,3895374,0 SPACEBEE-128,1 52182U 22033AB  23118.21643966  .00055011  00000-0  12581-2 0  9991,2 52182  97.3502 201.6302 0004270 333.4238  26.6790 15.42631619 59753,2022-033AB,52182,6816.483,93.347,441.259,435.437,1,
GENERATED VIA SPACETRACK.ORG API,18 SPCS,52182,SPACEBEE-128,PAYLOAD,U,22033AB,2023/4/28 11:25,993280,15.42663343,0.0004282,97.35,201.8924,332.0974,28.0043,0,999,5981,0.0013698,0.00060005,0,3895770,0 SPACEBEE-128,1 52182U 22033AB  23118.47590270  .00060005  00000-0  13698-2 0  9997,2 52182  97.3500 201.8924 0004282 332.0974  28.0043 15.42663343 59811,2022-033AB,52182,6816.39,93.345,441.173,435.336,1,
GENERATED VIA SPACETRACK.ORG API,18 SPCS,52182,SPACEBEE-128,PAYLOAD,U,22033AB,2023/4/29 4:32,140128,15.42752622,0.0004324,97.3503,202.6118,327.7228,32.3754,0,999,5990,0.0013298,0.00058413,0,3896293,0 SPACEBEE-128,1 52182U 22033AB  23119.18939977  .00058413  00000-0  13298-2 0  9993,2 52182  97.3503 202.6118 0004324 327.7228  32.3754 15.42752622 59904,2022-033AB,52182,6816.127,93.34,440.939,435.044,1,
GENERATED VIA SPACETRACK.ORG API,18 SPCS,52182,SPACEBEE-128,PAYLOAD,U,22033AB,2023/4/29 4:32,140128,15.42752622,0.0004324,97.3503,202.6118,327.7228,32.3754,0,999,5992,0.0013298,0.00058413,0,3896517,0 SPACEBEE-128,1 52182U 22033AB  23119.18939977  .00058413  00000-0  13298-2 0  9993,2 52182  97.3503 202.6118 0004324 327.7228  32.3754 15.42752622 59926,2022-033AB,52182,6816.127,93.34,440.939,435.044,1,
GENERATED VIA SPACETRACK.ORG API,18 SPCS,52182,SPACEBEE-128,PAYLOAD,U,22033AB,2023/4/30 3:53,80128,15.4288269,0.0004239,97.3505,203.5928,323.4138,36.682,0,999,6005,0.0013101,0.00057792,0,3897081,0 SPACEBEE-128,1 52182U 22033AB  23120.16228102  .00057792  00000-0  13101-2 0  9996,2 52182  97.3505 203.5928 0004239 323.4138  36.6820 15.42882690 60051,2022-033AB,52182,6815.743,93.332,440.498,434.719,1,
GENERATED VIA SPACETRACK.ORG API,18 SPCS,52182,SPACEBEE-128,PAYLOAD,U,22033AB,2023/4/30 3:53,80128,15.4288269,0.0004239,97.3505,203.5928,323.4138,36.682,0,999,6007,0.0013101,0.00057792,0,3897442,0 SPACEBEE-128,1 52182U 22033AB  23120.16228102  .00057792  00000-0  13101-2 0  9996,2 52182  97.3505 203.5928 0004239 323.4138  36.6820 15.42882690 60073,2022-033AB,52182,6815.743,93.332,440.498,434.719,1,
